[{"OBJECT_NAME":"STARLINK-34385","OBJECT_ID":"2025-126J","EPOCH":"2026-03-09T22:10:12.260928","MEAN_MOTION":14.98334733,"ECCENTRICITY":0.00028008,"INCLINATION":70.003,"RA_OF_ASC_NODE":34.0009,"ARG_OF_PERICENTER":274.0241,"MEAN_ANOMALY":86.0598,"EPHEMERIS_TYPE":0,"CLASSIFICATION_TYPE":"U","NORAD_CAT_ID":64352,"ELEMENT_SET_NO":999,"REV_AT_EPOCH":4071,"BSTAR":0.00043045685,"MEAN_MOTION_DOT":5.047e-5,"MEAN_MOTION_DDOT":0},{"OBJECT_NAME":"CUBEBUG-1 (CAPITAN BETO)","OBJECT_ID":"2013-018D","EPOCH":"2026-03-09T23:22:32.558880","MEAN_MOTION":14.96591533,"ECCENTRICITY":0.00130794,"INCLINATION":98.1526,"RA_OF_ASC_NODE":224.6129,"ARG_OF_PERICENTER":115.5703,"MEAN_ANOMALY":244.6871,"EPHEMERIS_TYPE":0,"CLASSIFICATION_TYPE":"U","NORAD_CAT_ID":39153,"ELEMENT_SET_NO":999,"REV_AT_EPOCH":69622,"BSTAR":0.00052624565,"MEAN_MOTION_DOT":5.941e-5,"MEAN_MOTION_DDOT":0}]
